start=new Date('2022-01-17T00:00:00.000Z').valueOf();
sats=[{"PERIAPSIS":"545.889","TIME_SYSTEM":"UTC","ELEMENT_SET_NO":"999","ARG_OF_PERICENTER":"68.3651","TLE_LINE1":"1 47639U 21012V   22016.36469141  .00004399  00000-0  31391-3 0  9995","INCLINATION":"53.0556","COUNTRY_CODE":"US","MEAN_ANOMALY":"291.7536","OBJECT_TYPE":"PAYLOAD","FILE":"3274671","EPHEMERIS_TYPE":"0","SITE":"AFETR","MEAN_ELEMENT_THEORY":"SGP4","RA_OF_ASC_NODE":"5.1850","REF_FRAME":"TEME","LAUNCH_DATE":"2021-02-16","RCS_SIZE":"LARGE","APOAPSIS":"548.464","TLE_LINE2":"2 47639  53.0556   5.1850 0001859  68.3651 291.7536 15.06412092 52152","DECAY_DATE":null,"MEAN_MOTION_DDOT":"0.0000000000000","MEAN_MOTION_DOT":"0.00004399","EPOCH":"2022-01-16T08:45:09.337824","REV_AT_EPOCH":"5215","NORAD_CAT_ID":"47639","MEAN_MOTION":"15.06412092","PERIOD":"95.591","SEMIMAJOR_AXIS":"6925.311","ECCENTRICITY":"0.00018590","BSTAR":"0.00031391000000","OBJECT_ID":"2021-012V","CLASSIFICATION_TYPE":"U","OBJECT_NAME":"STARLINK-2016","GP_ID":"193985054","CENTER_NAME":"EARTH"},{"FILE":"3274671","SITE":"AFETR","EPHEMERIS_TYPE":"0","COUNTRY_CODE":"US","MEAN_ANOMALY":"289.3822","OBJECT_TYPE":"PAYLOAD","INCLINATION":"53.0536","TLE_LINE1":"1 47640U 21012W   22016.49185310  .00005263  00000-0  37176-3 0  9992","ARG_OF_PERICENTER":"70.7345","ELEMENT_SET_NO":"999","PERIAPSIS":"546.015","TIME_SYSTEM":"UTC","CENTER_NAME":"EARTH","OBJECT_NAME":"STARLINK-2018","GP_ID":"193985306","CLASSIFICATION_TYPE":"U","MEAN_MOTION":"15.06419215","PERIOD":"95.591","SEMIMAJOR_AXIS":"6925.290","ECCENTRICITY":"0.00016450","BSTAR":"0.00037176000000","OBJECT_ID":"2021-012W","NORAD_CAT_ID":"47640","REV_AT_EPOCH":"5191","EPOCH":"2022-01-16T11:48:16.107840","MEAN_MOTION_DOT":"0.00005263","MEAN_MOTION_DDOT":"0.0000000000000","DECAY_DATE":null,"TLE_LINE2":"2 47640  53.0536  24.6279 0001645  70.7345 289.3822 15.06419215 51911","APOAPSIS":"548.294","RCS_SIZE":"LARGE","LAUNCH_DATE":"2021-02-16","REF_FRAME":"TEME","MEAN_ELEMENT_THEORY":"SGP4","RA_OF_ASC_NODE":"24.6279"},{"MEAN_MOTION_DOT":"-0.00057520","MEAN_MOTION_DDOT":"0.0000000000000","EPOCH":"2022-01-16T22:00:00.999936","NORAD_CAT_ID":"47641","REV_AT_EPOCH":"5279","BSTAR":"-0.00387340000000","ECCENTRICITY":"0.00015110","OBJECT_ID":"2021-012X","PERIOD":"95.592","SEMIMAJOR_AXIS":"6925.333","MEAN_MOTION":"15.06405142","CLASSIFICATION_TYPE":"U","GP_ID":"193990863","OBJECT_NAME":"STARLINK-2019","CENTER_NAME":"EARTH","RA_OF_ASC_NODE":"287.7134","MEAN_ELEMENT_THEORY":"SGP4","REF_FRAME":"TEME","LAUNCH_DATE":"2021-02-16","RCS_SIZE":"LARGE","APOAPSIS":"548.244","TLE_LINE2":"2 47641  53.0558 287.7134 0001511  72.1731  15.5957 15.06405142 52794","DECAY_DATE":null,"TLE_LINE1":"1 47641U 21012X   22016.91667824 -.00057520  00000-0 -38734-2 0  9990","INCLINATION":"53.0558","OBJECT_TYPE":"PAYLOAD","MEAN_ANOMALY":"15.5957","COUNTRY_CODE":"US","FILE":"3274811","SITE":"AFETR","EPHEMERIS_TYPE":"0","TIME_SYSTEM":"UTC","PERIAPSIS":"546.151","ELEMENT_SET_NO":"999","ARG_OF_PERICENTER":"72.1731"},{"ARG_OF_PERICENTER":"64.3458","PERIAPSIS":"546.172","TIME_SYSTEM":"UTC","ELEMENT_SET_NO":"999","COUNTRY_CODE":"US","MEAN_ANOMALY":"295.7680","OBJECT_TYPE":"PAYLOAD","EPHEMERIS_TYPE":"0","FILE":"3274671","SITE":"AFETR","TLE_LINE1":"1 47642U 21012Y   22016.36515082  .00003502  00000-0  25376-3 0  9996","INCLINATION":"53.0528","RCS_SIZE":"MEDIUM","TLE_LINE2":"2 47642  53.0528  20.2307 0001444  64.3458 295.7680 15.06413469 51951","APOAPSIS":"548.172","DECAY_DATE":null,"MEAN_ELEMENT_THEORY":"SGP4","RA_OF_ASC_NODE":"20.2307","REF_FRAME":"TEME","LAUNCH_DATE":"2021-02-16","PERIOD":"95.591","SEMIMAJOR_AXIS":"6925.307","MEAN_MOTION":"15.06413469","ECCENTRICITY":"0.00014440","BSTAR":"0.00025376000000","OBJECT_ID":"2021-012Y","CLASSIFICATION_TYPE":"U","OBJECT_NAME":"STARLINK-2020","GP_ID":"193984305","CENTER_NAME":"EARTH","MEAN_MOTION_DOT":"0.00003502","MEAN_MOTION_DDOT":"0.0000000000000","EPOCH":"2022-01-16T08:45:49.030848","NORAD_CAT_ID":"47642","REV_AT_EPOCH":"5195"},{"MEAN_ANOMALY":"274.0117","OBJECT_TYPE":"PAYLOAD","COUNTRY_CODE":"US","FILE":"3274671","SITE":"AFETR","EPHEMERIS_TYPE":"0","INCLINATION":"53.0564","TLE_LINE1":"1 47643U 21012Z   22016.37943332  .00001742  00000-0  13579-3 0  9997","ARG_OF_PERICENTER":"86.1060","ELEMENT_SET_NO":"999","PERIAPSIS":"546.049","TIME_SYSTEM":"UTC","CLASSIFICATION_TYPE":"U","BSTAR":"0.00013579000000","ECCENTRICITY":"0.00016370","OBJECT_ID":"2021-012Z","PERIOD":"95.591","SEMIMAJOR_AXIS":"6925.317","MEAN_MOTION":"15.06410175","CENTER_NAME":"EARTH","GP_ID":"193984555","OBJECT_NAME":"STARLINK-2022","EPOCH":"2022-01-16T09:06:23.038848","MEAN_MOTION_DDOT":"0.0000000000000","MEAN_MOTION_DOT":"0.00001742","NORAD_CAT_ID":"47643","REV_AT_EPOCH":"5217","RCS_SIZE":"LARGE","DECAY_DATE":null,"APOAPSIS":"548.316","TLE_LINE2":"2 47643  53.0564   5.1226 0001637  86.1060 274.0117 15.06410175 52170","RA_OF_ASC_NODE":"5.1226","MEAN_ELEMENT_THEORY":"SGP4","LAUNCH_DATE":"2021-02-16","REF_FRAME":"TEME"},{"EPOCH":"2022-01-16T09:24:57.515904","MEAN_MOTION_DDOT":"0.0000000000000","MEAN_MOTION_DOT":"0.00004140","REV_AT_EPOCH":"5190","NORAD_CAT_ID":"47644","CLASSIFICATION_TYPE":"U","OBJECT_ID":"2021-012AA","BSTAR":"0.00029655000000","ECCENTRICITY":"0.00016010","MEAN_MOTION":"15.06416778","PERIOD":"95.591","SEMIMAJOR_AXIS":"6925.297","CENTER_NAME":"EARTH","GP_ID":"193985806","OBJECT_NAME":"STARLINK-2026","RA_OF_ASC_NODE":"25.0766","MEAN_ELEMENT_THEORY":"SGP4","LAUNCH_DATE":"2021-02-16","REF_FRAME":"TEME","RCS_SIZE":"LARGE","DECAY_DATE":null,"APOAPSIS":"548.271","TLE_LINE2":"2 47644  53.0549  25.0766 0001601  70.2816 289.8345 15.06416778 51900","INCLINATION":"53.0549","TLE_LINE1":"1 47644U 21012AA  22016.39233236  .00004140  00000-0  29655-3 0  9992","OBJECT_TYPE":"PAYLOAD","MEAN_ANOMALY":"289.8345","COUNTRY_CODE":"US","SITE":"AFETR","FILE":"3274671","EPHEMERIS_TYPE":"0","ELEMENT_SET_NO":"999","PERIAPSIS":"546.053","TIME_SYSTEM":"UTC","ARG_OF_PERICENTER":"70.2816"},{"OBJECT_NAME":"STARLINK-2027","GP_ID":"193992588","CENTER_NAME":"EARTH","PERIOD":"95.591","MEAN_MOTION":"15.06420958","SEMIMAJOR_AXIS":"6925.284","BSTAR":"0.00035584000000","ECCENTRICITY":"0.00025320","OBJECT_ID":"2021-012AB","CLASSIFICATION_TYPE":"U","REV_AT_EPOCH":"5183","NORAD_CAT_ID":"47645","MEAN_MOTION_DDOT":"0.0000000000000","MEAN_MOTION_DOT":"0.00005025","EPOCH":"2022-01-16T15:44:24.942336","APOAPSIS":"548.903","TLE_LINE2":"2 47645  53.0549 353.8837 0002532 205.7563 154.3300 15.06420958 51834","DECAY_DATE":null,"RCS_SIZE":"LARGE","REF_FRAME":"TEME","LAUNCH_DATE":"2021-02-16","MEAN_ELEMENT_THEORY":"SGP4","RA_OF_ASC_NODE":"353.8837","FILE":"3274889","SITE":"AFETR","EPHEMERIS_TYPE":"0","COUNTRY_CODE":"US","OBJECT_TYPE":"PAYLOAD","MEAN_ANOMALY":"154.3300","TLE_LINE1":"1 47645U 21012AB  22016.65584424  .00005025  00000-0  35584-3 0  9991","INCLINATION":"53.0549","ARG_OF_PERICENTER":"205.7563","PERIAPSIS":"545.396","TIME_SYSTEM":"UTC","ELEMENT_SET_NO":"999"},{"CLASSIFICATION_TYPE":"U","PERIOD":"95.591","SEMIMAJOR_AXIS":"6925.313","MEAN_MOTION":"15.06411724","BSTAR":"0.00007128200000","ECCENTRICITY":"0.00018790","OBJECT_ID":"2021-012AC","CENTER_NAME":"EARTH","OBJECT_NAME":"STARLINK-2028","GP_ID":"193992587","EPOCH":"2022-01-16T15:25:10.605504","MEAN_MOTION_DDOT":"0.0000000000000","MEAN_MOTION_DOT":"0.00000781","REV_AT_EPOCH":"5232","NORAD_CAT_ID":"47646","RCS_SIZE":"LARGE","DECAY_DATE":null,"APOAPSIS":"548.479","TLE_LINE2":"2 47646  53.0565 318.9550 0001879  65.3220 294.7964 15.06411724 52321","MEAN_ELEMENT_THEORY":"SGP4","RA_OF_ASC_NODE":"318.9550","LAUNCH_DATE":"2021-02-16","REF_FRAME":"TEME","COUNTRY_CODE":"US","MEAN_ANOMALY":"294.7964","OBJECT_TYPE":"PAYLOAD","FILE":"3274889","SITE":"AFETR","EPHEMERIS_TYPE":"0","INCLINATION":"53.0565","TLE_LINE1":"1 47646U 21012AC  22016.64248386  .00000781  00000-0  71282-4 0  9995","ARG_OF_PERICENTER":"65.3220","ELEMENT_SET_NO":"999","PERIAPSIS":"545.876","TIME_SYSTEM":"UTC"},{"ARG_OF_PERICENTER":"60.0677","ELEMENT_SET_NO":"999","PERIAPSIS":"545.878","TIME_SYSTEM":"UTC","FILE":"3274671","EPHEMERIS_TYPE":"0","SITE":"AFETR","COUNTRY_CODE":"US","OBJECT_TYPE":"PAYLOAD","MEAN_ANOMALY":"300.0499","INCLINATION":"53.0562","TLE_LINE1":"1 47647U 21012AD  22016.40339385  .00004566  00000-0  32513-3 0  9998","DECAY_DATE":null,"APOAPSIS":"548.485","TLE_LINE2":"2 47647  53.0562  25.0344 0001882  60.0677 300.0499 15.06410442 51901","RCS_SIZE":"LARGE","LAUNCH_DATE":"2021-02-16","REF_FRAME":"TEME","MEAN_ELEMENT_THEORY":"SGP4","RA_OF_ASC_NODE":"25.0344","CENTER_NAME":"EARTH","OBJECT_NAME":"STARLINK-2030","GP_ID":"193985055","CLASSIFICATION_TYPE":"U","PERIOD":"95.591","SEMIMAJOR_AXIS":"6925.317","MEAN_MOTION":"15.06410442","OBJECT_ID":"2021-012AD","BSTAR":"0.00032513000000","ECCENTRICITY":"0.00018820","REV_AT_EPOCH":"5190","NORAD_CAT_ID":"47647","EPOCH":"2022-01-16T09:40:53.228640","MEAN_MOTION_DDOT":"0.0000000000000","MEAN_MOTION_DOT":"0.00004566"},{"DECAY_DATE":null,"TLE_LINE2":"2 47648  53.0563   5.3659 0001752  58.9405 301.1756 15.06413137 52176","APOAPSIS":"548.387","RCS_SIZE":"MEDIUM","LAUNCH_DATE":"2021-02-16","REF_FRAME":"TEME","MEAN_ELEMENT_THEORY":"SGP4","RA_OF_ASC_NODE":"5.3659","CENTER_NAME":"EARTH","OBJECT_NAME":"STARLINK-2031","GP_ID":"193985307","CLASSIFICATION_TYPE":"U","PERIOD":"95.591","MEAN_MOTION":"15.06413137","SEMIMAJOR_AXIS":"6925.308","BSTAR":"0.00007940700000","OBJECT_ID":"2021-012AE","ECCENTRICITY":"0.00017520","NORAD_CAT_ID":"47648","REV_AT_EPOCH":"5217","EPOCH":"2022-01-16T07:52:04.582848","MEAN_MOTION_DOT":"0.00000902","MEAN_MOTION_DDOT":"0.0000000000000","ARG_OF_PERICENTER":"58.9405","ELEMENT_SET_NO":"999","TIME_SYSTEM":"UTC","PERIAPSIS":"545.960","FILE":"3274671","EPHEMERIS_TYPE":"0","SITE":"AFETR","COUNTRY_CODE":"US","MEAN_ANOMALY":"301.1756","OBJECT_TYPE":"PAYLOAD","INCLINATION":"53.0563","TLE_LINE1":"1 47648U 21012AE  22016.32783082  .00000902  00000-0  79407-4 0  9991"}];
